{
    "ab": {
        "isoName": "Abkhazian",
        "nativeName": "\u0430\u04a7\u0441\u0443\u0430 \u0431\u044b\u0437\u0448\u04d9\u0430, \u0430\u04a7\u0441\u0448\u04d9\u0430"
    },
    "aa": {
        "isoName": "Afar",
        "nativeName": "Afaraf"
    },
    "af": {
        "isoName": "Afrikaans",
        "nativeName": "Afrikaans"
    },
    "ak": {
        "isoName": "Akan",
        "nativeName": "Akan"
    },
    "sq": {
        "isoName": "Albanian",
        "nativeName": "Shqip"
    },
    "am": {
        "isoName": "Amharic",
        "nativeName": "\u12a0\u121b\u122d\u129b"
    },
    "ar": {
        "isoName": "Arabic",
        "nativeName": "\u0627\u0644\u0639\u0631\u0628\u064a\u0629"
    },
    "an": {
        "isoName": "Aragonese",
        "nativeName": "aragon\u00e9s"
    },
    "hy": {
        "isoName": "Armenian",
        "nativeName": "\u0540\u0561\u0575\u0565\u0580\u0565\u0576"
    },
    "as": {
        "isoName": "Assamese",
        "nativeName": "\u0985\u09b8\u09ae\u09c0\u09af\u09bc\u09be"
    },
    "av": {
        "isoName": "Avaric",
        "nativeName": "\u0430\u0432\u0430\u0440 \u043c\u0430\u0446\u04c0, \u043c\u0430\u0433\u04c0\u0430\u0440\u0443\u043b \u043c\u0430\u0446\u04c0"
    },
    "ae": {
        "isoName": "Avestan",
        "nativeName": "avesta"
    },
    "ay": {
        "isoName": "Aymara",
        "nativeName": "aymar aru"
    },
    "az": {
        "isoName": "Azerbaijani",
        "nativeName": "az\u0259rbaycan dili"
    },
    "bm": {
        "isoName": "Bambara",
        "nativeName": "bamanankan"
    },
    "ba": {
        "isoName": "Bashkir",
        "nativeName": "\u0431\u0430\u0448\u04a1\u043e\u0440\u0442 \u0442\u0435\u043b\u0435"
    },
    "eu": {
        "isoName": "Basque",
        "nativeName": "euskara, euskera"
    },
    "be": {
        "isoName": "Belarusian",
        "nativeName": "\u0431\u0435\u043b\u0430\u0440\u0443\u0441\u043a\u0430\u044f \u043c\u043e\u0432\u0430"
    },
    "bn": {
        "isoName": "Bengali",
        "nativeName": "\u09ac\u09be\u0982\u09b2\u09be"
    },
    "bh": {
        "isoName": "Bihari languages",
        "nativeName": "\u092d\u094b\u091c\u092a\u0941\u0930\u0940"
    },
    "bi": {
        "isoName": "Bislama",
        "nativeName": "Bislama"
    },
    "bs": {
        "isoName": "Bosnian",
        "nativeName": "bosanski jezik"
    },
    "br": {
        "isoName": "Breton",
        "nativeName": "brezhoneg"
    },
    "bg": {
        "isoName": "Bulgarian",
        "nativeName": "\u0431\u044a\u043b\u0433\u0430\u0440\u0441\u043a\u0438 \u0435\u0437\u0438\u043a"
    },
    "my": {
        "isoName": "Burmese",
        "nativeName": "\u1017\u1019\u102c\u1005\u102c"
    },
    "ca": {
        "isoName": "Catalan, Valencian",
        "nativeName": "catal\u00e0, valenci\u00e0"
    },
    "ch": {
        "isoName": "Chamorro",
        "nativeName": "Chamoru"
    },
    "ce": {
        "isoName": "Chechen",
        "nativeName": "\u043d\u043e\u0445\u0447\u0438\u0439\u043d \u043c\u043e\u0442\u0442"
    },
    "ny": {
        "isoName": "Chichewa, Chewa, Nyanja",
        "nativeName": "chiChe\u0175a, chinyanja"
    },
    "zh": {
        "isoName": "Chinese",
        "nativeName": "\u4e2d\u6587\u00a0(Zh\u014dngw\u00e9n),\u00a0\u6c49\u8bed,\u00a0\u6f22\u8a9e"
    },
    "cv": {
        "isoName": "Chuvash",
        "nativeName": "\u0447\u04d1\u0432\u0430\u0448 \u0447\u04d7\u043b\u0445\u0438"
    },
    "kw": {
        "isoName": "Cornish",
        "nativeName": "Kernewek"
    },
    "co": {
        "isoName": "Corsican",
        "nativeName": "corsu, lingua corsa"
    },
    "cr": {
        "isoName": "Cree",
        "nativeName": "\u14c0\u1426\u1403\u152d\u140d\u140f\u1423"
    },
    "hr": {
        "isoName": "Croatian",
        "nativeName": "hrvatski jezik"
    },
    "cs": {
        "isoName": "Czech",
        "nativeName": "\u010de\u0161tina, \u010desk\u00fd jazyk"
    },
    "da": {
        "isoName": "Danish",
        "nativeName": "dansk"
    },
    "dv": {
        "isoName": "Divehi, Dhivehi, Maldivian",
        "nativeName": "\u078b\u07a8\u0788\u07ac\u0780\u07a8"
    },
    "nl": {
        "isoName": "Dutch, Flemish",
        "nativeName": "Nederlands, Vlaams"
    },
    "dz": {
        "isoName": "Dzongkha",
        "nativeName": "\u0f62\u0fab\u0f7c\u0f44\u0f0b\u0f41"
    },
    "en": {
        "isoName": "English",
        "nativeName": "English"
    },
    "eo": {
        "isoName": "Esperanto",
        "nativeName": "Esperanto"
    },
    "et": {
        "isoName": "Estonian",
        "nativeName": "eesti, eesti keel"
    },
    "ee": {
        "isoName": "Ewe",
        "nativeName": "E\u028begbe"
    },
    "fo": {
        "isoName": "Faroese",
        "nativeName": "f\u00f8royskt"
    },
    "fj": {
        "isoName": "Fijian",
        "nativeName": "vosa Vakaviti"
    },
    "fi": {
        "isoName": "Finnish",
        "nativeName": "suomi, suomen kieli"
    },
    "fr": {
        "isoName": "French",
        "nativeName": "fran\u00e7ais"
    },
    "ff": {
        "isoName": "Fulah",
        "nativeName": "Fulfulde, Pulaar, Pular"
    },
    "gl": {
        "isoName": "Galician",
        "nativeName": "Galego"
    },
    "ka": {
        "isoName": "Georgian",
        "nativeName": "\u10e5\u10d0\u10e0\u10d7\u10e3\u10da\u10d8"
    },
    "de": {
        "isoName": "German",
        "nativeName": "Deutsch"
    },
    "el": {
        "isoName": "Greek\u00a0(modern)",
        "nativeName": "\u03b5\u03bb\u03bb\u03b7\u03bd\u03b9\u03ba\u03ac"
    },
    "gn": {
        "isoName": "Guaran\u00ed",
        "nativeName": "Ava\u00f1e'\u1ebd"
    },
    "gu": {
        "isoName": "Gujarati",
        "nativeName": "\u0a97\u0ac1\u0a9c\u0ab0\u0abe\u0aa4\u0ac0"
    },
    "ht": {
        "isoName": "Haitian, Haitian Creole",
        "nativeName": "Krey\u00f2l ayisyen"
    },
    "ha": {
        "isoName": "Hausa",
        "nativeName": "(Hausa) \u0647\u064e\u0648\u064f\u0633\u064e"
    },
    "he": {
        "isoName": "Hebrew\u00a0(modern)",
        "nativeName": "\u05e2\u05d1\u05e8\u05d9\u05ea"
    },
    "hz": {
        "isoName": "Herero",
        "nativeName": "Otjiherero"
    },
    "hi": {
        "isoName": "Hindi",
        "nativeName": "\u0939\u093f\u0928\u094d\u0926\u0940, \u0939\u093f\u0902\u0926\u0940"
    },
    "ho": {
        "isoName": "Hiri Motu",
        "nativeName": "Hiri Motu"
    },
    "hu": {
        "isoName": "Hungarian",
        "nativeName": "magyar"
    },
    "ia": {
        "isoName": "Interlingua",
        "nativeName": "Interlingua"
    },
    "id": {
        "isoName": "Indonesian",
        "nativeName": "Bahasa Indonesia"
    },
    "ie": {
        "isoName": "Interlingue",
        "nativeName": "Originally called\u00a0Occidental; then Interlingue after WWII"
    },
    "ga": {
        "isoName": "Irish",
        "nativeName": "Gaeilge"
    },
    "ig": {
        "isoName": "Igbo",
        "nativeName": "As\u1ee5s\u1ee5 Igbo"
    },
    "ik": {
        "isoName": "Inupiaq",
        "nativeName": "I\u00f1upiaq, I\u00f1upiatun"
    },
    "io": {
        "isoName": "Ido",
        "nativeName": "Ido"
    },
    "is": {
        "isoName": "Icelandic",
        "nativeName": "\u00cdslenska"
    },
    "it": {
        "isoName": "Italian",
        "nativeName": "Italiano"
    },
    "iu": {
        "isoName": "Inuktitut",
        "nativeName": "\u1403\u14c4\u1483\u144e\u1450\u1466"
    },
    "ja": {
        "isoName": "Japanese",
        "nativeName": "\u65e5\u672c\u8a9e\u00a0(\u306b\u307b\u3093\u3054)"
    },
    "jv": {
        "isoName": "Javanese",
        "nativeName": "\ua9a7\ua9b1\ua997\ua9ae, Basa Jawa"
    },
    "kl": {
        "isoName": "Kalaallisut, Greenlandic",
        "nativeName": "kalaallisut, kalaallit oqaasii"
    },
    "kn": {
        "isoName": "Kannada",
        "nativeName": "\u0c95\u0ca8\u0ccd\u0ca8\u0ca1"
    },
    "kr": {
        "isoName": "Kanuri",
        "nativeName": "Kanuri"
    },
    "ks": {
        "isoName": "Kashmiri",
        "nativeName": "\u0915\u0936\u094d\u092e\u0940\u0930\u0940,\u00a0\u0643\u0634\u0645\u064a\u0631\u064a\u200e"
    },
    "kk": {
        "isoName": "Kazakh",
        "nativeName": "\u049b\u0430\u0437\u0430\u049b \u0442\u0456\u043b\u0456"
    },
    "km": {
        "isoName": "Central Khmer",
        "nativeName": "\u1781\u17d2\u1798\u17c2\u179a, \u1781\u17c1\u1798\u179a\u1797\u17b6\u179f\u17b6, \u1797\u17b6\u179f\u17b6\u1781\u17d2\u1798\u17c2\u179a"
    },
    "ki": {
        "isoName": "Kikuyu, Gikuyu",
        "nativeName": "G\u0129k\u0169y\u0169"
    },
    "rw": {
        "isoName": "Kinyarwanda",
        "nativeName": "Ikinyarwanda"
    },
    "ky": {
        "isoName": "Kirghiz, Kyrgyz",
        "nativeName": "\u041a\u044b\u0440\u0433\u044b\u0437\u0447\u0430, \u041a\u044b\u0440\u0433\u044b\u0437 \u0442\u0438\u043b\u0438"
    },
    "kv": {
        "isoName": "Komi",
        "nativeName": "\u043a\u043e\u043c\u0438 \u043a\u044b\u0432"
    },
    "kg": {
        "isoName": "Kongo",
        "nativeName": "Kikongo"
    },
    "ko": {
        "isoName": "Korean",
        "nativeName": "\ud55c\uad6d\uc5b4"
    },
    "ku": {
        "isoName": "Kurdish",
        "nativeName": "Kurd\u00ee,\u00a0\u06a9\u0648\u0631\u062f\u06cc\u200e"
    },
    "kj": {
        "isoName": "Kuanyama, Kwanyama",
        "nativeName": "Kuanyama"
    },
    "la": {
        "isoName": "Latin",
        "nativeName": "latine, lingua latina"
    },
    "lb": {
        "isoName": "Luxembourgish, Letzeburgesch",
        "nativeName": "L\u00ebtzebuergesch"
    },
    "lg": {
        "isoName": "Ganda",
        "nativeName": "Luganda"
    },
    "li": {
        "isoName": "Limburgan, Limburger, Limburgish",
        "nativeName": "Limburgs"
    },
    "ln": {
        "isoName": "Lingala",
        "nativeName": "Ling\u00e1la"
    },
    "lo": {
        "isoName": "Lao",
        "nativeName": "\u0e9e\u0eb2\u0eaa\u0eb2\u0ea5\u0eb2\u0ea7"
    },
    "lt": {
        "isoName": "Lithuanian",
        "nativeName": "lietuvi\u0173 kalba"
    },
    "lu": {
        "isoName": "Luba-Katanga",
        "nativeName": "Kiluba"
    },
    "lv": {
        "isoName": "Latvian",
        "nativeName": "latvie\u0161u valoda"
    },
    "gv": {
        "isoName": "Manx",
        "nativeName": "Gaelg, Gailck"
    },
    "mk": {
        "isoName": "Macedonian",
        "nativeName": "\u043c\u0430\u043a\u0435\u0434\u043e\u043d\u0441\u043a\u0438 \u0458\u0430\u0437\u0438\u043a"
    },
    "mg": {
        "isoName": "Malagasy",
        "nativeName": "fiteny malagasy"
    },
    "ms": {
        "isoName": "Malay",
        "nativeName": "Bahasa Melayu,\u00a0\u0628\u0647\u0627\u0633 \u0645\u0644\u0627\u064a\u0648\u200e"
    },
    "ml": {
        "isoName": "Malayalam",
        "nativeName": "\u0d2e\u0d32\u0d2f\u0d3e\u0d33\u0d02"
    },
    "mt": {
        "isoName": "Maltese",
        "nativeName": "Malti"
    },
    "mi": {
        "isoName": "Maori",
        "nativeName": "te reo M\u0101ori"
    },
    "mr": {
        "isoName": "Marathi",
        "nativeName": "\u092e\u0930\u093e\u0920\u0940"
    },
    "mh": {
        "isoName": "Marshallese",
        "nativeName": "Kajin M\u0327aje\u013c"
    },
    "mn": {
        "isoName": "Mongolian",
        "nativeName": "\u041c\u043e\u043d\u0433\u043e\u043b \u0445\u044d\u043b"
    },
    "na": {
        "isoName": "Nauru",
        "nativeName": "Dorerin Naoero"
    },
    "nv": {
        "isoName": "Navajo, Navaho",
        "nativeName": "Din\u00e9 bizaad"
    },
    "nd": {
        "isoName": "North Ndebele",
        "nativeName": "isiNdebele"
    },
    "ne": {
        "isoName": "Nepali",
        "nativeName": "\u0928\u0947\u092a\u093e\u0932\u0940"
    },
    "ng": {
        "isoName": "Ndonga",
        "nativeName": "Owambo"
    },
    "nb": {
        "isoName": "Norwegian Bokm\u00e5l",
        "nativeName": "Norsk Bokm\u00e5l"
    },
    "nn": {
        "isoName": "Norwegian Nynorsk",
        "nativeName": "Norsk Nynorsk"
    },
    "no": {
        "isoName": "Norwegian",
        "nativeName": "Norsk"
    },
    "ii": {
        "isoName": "Sichuan Yi, Nuosu",
        "nativeName": "\ua188\ua320\ua4bf Nuosuhxop"
    },
    "nr": {
        "isoName": "South Ndebele",
        "nativeName": "isiNdebele"
    },
    "oc": {
        "isoName": "Occitan",
        "nativeName": "occitan, lenga d'\u00f2c"
    },
    "oj": {
        "isoName": "Ojibwa",
        "nativeName": "\u140a\u14c2\u1511\u14c8\u142f\u14a7\u140e\u14d0"
    },
    "cu": {
        "isoName": "Church\u00a0Slavic, Church\u00a0Slavonic,\u00a0Old\u00a0Church\u00a0Slavonic, Old\u00a0Slavonic,\u00a0Old\u00a0Bulgarian",
        "nativeName": "\u0469\u0437\u044b\u043a\u044a \u0441\u043b\u043e\u0432\u0463\u043d\u044c\u0441\u043a\u044a"
    },
    "om": {
        "isoName": "Oromo",
        "nativeName": "Afaan Oromoo"
    },
    "or": {
        "isoName": "Oriya",
        "nativeName": "\u0b13\u0b21\u0b3c\u0b3f\u0b06"
    },
    "os": {
        "isoName": "Ossetian, Ossetic",
        "nativeName": "\u0438\u0440\u043e\u043d \u00e6\u0432\u0437\u0430\u0433"
    },
    "pa": {
        "isoName": "Panjabi, Punjabi",
        "nativeName": "\u0a2a\u0a70\u0a1c\u0a3e\u0a2c\u0a40"
    },
    "pi": {
        "isoName": "Pali",
        "nativeName": "\u092a\u093e\u0934\u093f"
    },
    "fa": {
        "isoName": "Persian",
        "nativeName": "\u0641\u0627\u0631\u0633\u06cc"
    },
    "pl": {
        "isoName": "Polish",
        "nativeName": "j\u0119zyk polski, polszczyzna"
    },
    "ps": {
        "isoName": "Pashto, Pushto",
        "nativeName": "\u067e\u069a\u062a\u0648"
    },
    "pt": {
        "isoName": "Portuguese",
        "nativeName": "Portugu\u00eas"
    },
    "qu": {
        "isoName": "Quechua",
        "nativeName": "Runa Simi, Kichwa"
    },
    "rm": {
        "isoName": "Romansh",
        "nativeName": "Rumantsch Grischun"
    },
    "rn": {
        "isoName": "Rundi",
        "nativeName": "Ikirundi"
    },
    "ro": {
        "isoName": "Romanian, Moldavian, Moldovan",
        "nativeName": "Rom\u00e2n\u0103"
    },
    "ru": {
        "isoName": "Russian",
        "nativeName": "\u0440\u0443\u0441\u0441\u043a\u0438\u0439"
    },
    "sa": {
        "isoName": "Sanskrit",
        "nativeName": "\u0938\u0902\u0938\u094d\u0915\u0943\u0924\u092e\u094d"
    },
    "sc": {
        "isoName": "Sardinian",
        "nativeName": "sardu"
    },
    "sd": {
        "isoName": "Sindhi",
        "nativeName": "\u0938\u093f\u0928\u094d\u0927\u0940,\u00a0\u0633\u0646\u068c\u064a\u060c \u0633\u0646\u062f\u06be\u06cc\u200e"
    },
    "se": {
        "isoName": "Northern Sami",
        "nativeName": "Davvis\u00e1megiella"
    },
    "sm": {
        "isoName": "Samoan",
        "nativeName": "gagana fa'a Samoa"
    },
    "sg": {
        "isoName": "Sango",
        "nativeName": "y\u00e2ng\u00e2 t\u00ee s\u00e4ng\u00f6"
    },
    "sr": {
        "isoName": "Serbian",
        "nativeName": "\u0441\u0440\u043f\u0441\u043a\u0438 \u0458\u0435\u0437\u0438\u043a"
    },
    "gd": {
        "isoName": "Gaelic, Scottish Gaelic",
        "nativeName": "G\u00e0idhlig"
    },
    "sn": {
        "isoName": "Shona",
        "nativeName": "chiShona"
    },
    "si": {
        "isoName": "Sinhala, Sinhalese",
        "nativeName": "\u0dc3\u0dd2\u0d82\u0dc4\u0dbd"
    },
    "sk": {
        "isoName": "Slovak",
        "nativeName": "Sloven\u010dina, Slovensk\u00fd Jazyk"
    },
    "sl": {
        "isoName": "Slovenian",
        "nativeName": "Slovenski Jezik, Sloven\u0161\u010dina"
    },
    "so": {
        "isoName": "Somali",
        "nativeName": "Soomaaliga, af Soomaali"
    },
    "st": {
        "isoName": "Southern Sotho",
        "nativeName": "Sesotho"
    },
    "es": {
        "isoName": "Spanish, Castilian",
        "nativeName": "Espa\u00f1ol"
    },
    "su": {
        "isoName": "Sundanese",
        "nativeName": "Basa Sunda"
    },
    "sw": {
        "isoName": "Swahili",
        "nativeName": "Kiswahili"
    },
    "ss": {
        "isoName": "Swati",
        "nativeName": "SiSwati"
    },
    "sv": {
        "isoName": "Swedish",
        "nativeName": "Svenska"
    },
    "ta": {
        "isoName": "Tamil",
        "nativeName": "\u0ba4\u0bae\u0bbf\u0bb4\u0bcd"
    },
    "te": {
        "isoName": "Telugu",
        "nativeName": "\u0c24\u0c46\u0c32\u0c41\u0c17\u0c41"
    },
    "tg": {
        "isoName": "Tajik",
        "nativeName": "\u0442\u043e\u04b7\u0438\u043a\u04e3,\u00a0to\u00e7ik\u012b,\u00a0\u062a\u0627\u062c\u06cc\u06a9\u06cc\u200e"
    },
    "th": {
        "isoName": "Thai",
        "nativeName": "\u0e44\u0e17\u0e22"
    },
    "ti": {
        "isoName": "Tigrinya",
        "nativeName": "\u1275\u130d\u122d\u129b"
    },
    "bo": {
        "isoName": "Tibetan",
        "nativeName": "\u0f56\u0f7c\u0f51\u0f0b\u0f61\u0f72\u0f42"
    },
    "tk": {
        "isoName": "Turkmen",
        "nativeName": "T\u00fcrkmen, \u0422\u04af\u0440\u043a\u043c\u0435\u043d"
    },
    "tl": {
        "isoName": "Tagalog",
        "nativeName": "Wikang Tagalog"
    },
    "tn": {
        "isoName": "Tswana",
        "nativeName": "Setswana"
    },
    "to": {
        "isoName": "Tongan\u00a0(Tonga Islands)",
        "nativeName": "Faka Tonga"
    },
    "tr": {
        "isoName": "Turkish",
        "nativeName": "T\u00fcrk\u00e7e"
    },
    "ts": {
        "isoName": "Tsonga",
        "nativeName": "Xitsonga"
    },
    "tt": {
        "isoName": "Tatar",
        "nativeName": "\u0442\u0430\u0442\u0430\u0440 \u0442\u0435\u043b\u0435,\u00a0tatar tele"
    },
    "tw": {
        "isoName": "Twi",
        "nativeName": "Twi"
    },
    "ty": {
        "isoName": "Tahitian",
        "nativeName": "Reo Tahiti"
    },
    "ug": {
        "isoName": "Uighur, Uyghur",
        "nativeName": "Uy\u01a3urq\u0259, \u202b\u0626\u06c7\u064a\u063a\u06c7\u0631\u0686"
    },
    "uk": {
        "isoName": "Ukrainian",
        "nativeName": "\u0423\u043a\u0440\u0430\u0457\u043d\u0441\u044c\u043a\u0430"
    },
    "ur": {
        "isoName": "Urdu",
        "nativeName": "\u0627\u0631\u062f\u0648"
    },
    "uz": {
        "isoName": "Uzbek",
        "nativeName": "O\u02bbzbek,\u00a0\u040e\u0437\u0431\u0435\u043a,\u00a0\u0623\u06c7\u0632\u0628\u06d0\u0643\u200e"
    },
    "ve": {
        "isoName": "Venda",
        "nativeName": "Tshiven\u1e13a"
    },
    "vi": {
        "isoName": "Vietnamese",
        "nativeName": "Ti\u1ebfng Vi\u1ec7t"
    },
    "vo": {
        "isoName": "Volap\u00fck",
        "nativeName": "Volap\u00fck"
    },
    "wa": {
        "isoName": "Walloon",
        "nativeName": "Walon"
    },
    "cy": {
        "isoName": "Welsh",
        "nativeName": "Cymraeg"
    },
    "wo": {
        "isoName": "Wolof",
        "nativeName": "Wollof"
    },
    "fy": {
        "isoName": "Western Frisian",
        "nativeName": "Frysk"
    },
    "xh": {
        "isoName": "Xhosa",
        "nativeName": "isiXhosa"
    },
    "yi": {
        "isoName": "Yiddish",
        "nativeName": "\u05d9\u05d9\u05b4\u05d3\u05d9\u05e9"
    },
    "yo": {
        "isoName": "Yoruba",
        "nativeName": "Yor\u00f9b\u00e1"
    },
    "za": {
        "isoName": "Zhuang, Chuang",
        "nativeName": "Sa\u026f cue\u014b\u0185, Saw cuengh"
    },
    "zu": {
        "isoName": "Zulu",
        "nativeName": "isiZulu"
    },
    "agq": {
        "isoName": "Aghem",
        "nativeName": "Aghem"
    },
    "agr": {
        "isoName": "Aguaruna",
        "nativeName": "Aguaruna"
    },
    "anp": {
        "isoName": "Angika",
        "nativeName": "Angika"
    },
    "asa": {
        "isoName": "Asu",
        "nativeName": "Asu"
    },
    "ast": {
        "isoName": "Asturian",
        "nativeName": "Asturian"
    },
    "ayc": {
        "isoName": "Southern Aymara",
        "nativeName": "Southern Aymara"
    },
    "bas": {
        "isoName": "Basaa",
        "nativeName": "Basaa"
    },
    "bem": {
        "isoName": "Bemba",
        "nativeName": "Bemba"
    },
    "bez": {
        "isoName": "Bena",
        "nativeName": "Bena"
    },
    "bhb": {
        "isoName": "Bhili",
        "nativeName": "Bhili"
    },
    "bho": {
        "isoName": "Bhojpuri",
        "nativeName": "Bhojpuri"
    },
    "brx": {
        "isoName": "Bodo",
        "nativeName": "Bodo"
    },
    "byn": {
        "isoName": "Bilin",
        "nativeName": "Bilin"
    },
    "ccp": {
        "isoName": "Chakma",
        "nativeName": "Chakma"
    },
    "cgg": {
        "isoName": "Chiga",
        "nativeName": "Chiga"
    },
    "chr": {
        "isoName": "Cherokee",
        "nativeName": "Cherokee"
    },
    "cmn": {
        "isoName": "Chinese",
        "nativeName": "Chinese"
    },
    "crh": {
        "isoName": "Crimean Turkish",
        "nativeName": "Crimean Turkish"
    },
    "csb": {
        "isoName": "Kashubian",
        "nativeName": "Kashubian"
    },
    "dav": {
        "isoName": "Taita",
        "nativeName": "Taita"
    },
    "dje": {
        "isoName": "Zarma",
        "nativeName": "Zarma"
    },
    "doi": {
        "isoName": "Dogri (macrolanguage)",
        "nativeName": "Dogri (macrolanguage)"
    },
    "dsb": {
        "isoName": "Lower Sorbian",
        "nativeName": "Lower Sorbian"
    },
    "dua": {
        "isoName": "Duala",
        "nativeName": "Duala"
    },
    "dyo": {
        "isoName": "Jola-Fonyi",
        "nativeName": "Jola-Fonyi"
    },
    "ebu": {
        "isoName": "Embu",
        "nativeName": "Embu"
    },
    "ewo": {
        "isoName": "Ewondo",
        "nativeName": "Ewondo"
    },
    "fil": {
        "isoName": "Filipino",
        "nativeName": "Filipino"
    },
    "fur": {
        "isoName": "Friulian",
        "nativeName": "Friulian"
    },
    "gez": {
        "isoName": "Geez",
        "nativeName": "Geez"
    },
    "gom": {
        "isoName": "Konkani, Goan",
        "nativeName": "\u0c95\u0cca\u0c82\u0c95\u0ca3\u0cbf"
    },
    "gsw": {
        "isoName": "Swiss German",
        "nativeName": "Swiss German"
    },
    "guz": {
        "isoName": "Gusii",
        "nativeName": "Gusii"
    },
    "hak": {
        "isoName": "Hakka Chinese",
        "nativeName": "Hakka Chinese"
    },
    "haw": {
        "isoName": "Hawaiian",
        "nativeName": "Hawaiian"
    },
    "hif": {
        "isoName": "Fiji Hindi",
        "nativeName": "Fiji Hindi"
    },
    "hne": {
        "isoName": "Chhattisgarhi",
        "nativeName": "Chhattisgarhi"
    },
    "hsb": {
        "isoName": "Upper Sorbian",
        "nativeName": "Upper Sorbian"
    },
    "jgo": {
        "isoName": "Ngomba",
        "nativeName": "Ngomba"
    },
    "jmc": {
        "isoName": "Machame",
        "nativeName": "Machame"
    },
    "kab": {
        "isoName": "Kabyle",
        "nativeName": "Kabyle"
    },
    "kam": {
        "isoName": "Kamba",
        "nativeName": "Kamba"
    },
    "kde": {
        "isoName": "Makonde",
        "nativeName": "Makonde"
    },
    "kea": {
        "isoName": "Kabuverdianu",
        "nativeName": "Kabuverdianu"
    },
    "khq": {
        "isoName": "Koyra Chiini",
        "nativeName": "Koyra Chiini"
    },
    "kkj": {
        "isoName": "Kako",
        "nativeName": "Kako"
    },
    "kln": {
        "isoName": "Kalenjin",
        "nativeName": "Kalenjin"
    },
    "kok": {
        "isoName": "Konkani",
        "nativeName": "Konkani"
    },
    "ksb": {
        "isoName": "Shambala",
        "nativeName": "Shambala"
    },
    "ksf": {
        "isoName": "Bafia",
        "nativeName": "Bafia"
    },
    "ksh": {
        "isoName": "Colognian",
        "nativeName": "Colognian"
    },
    "lag": {
        "isoName": "Langi",
        "nativeName": "Langi"
    },
    "lij": {
        "isoName": "Ligurian",
        "nativeName": "Ligurian"
    },
    "lkt": {
        "isoName": "Lakota",
        "nativeName": "Lakota"
    },
    "lrc": {
        "isoName": "Northern Luri",
        "nativeName": "Northern Luri"
    },
    "luo": {
        "isoName": "Luo",
        "nativeName": "Luo"
    },
    "luy": {
        "isoName": "Luyia",
        "nativeName": "Luyia"
    },
    "lzh": {
        "isoName": "Literary Chinese",
        "nativeName": "Literary Chinese"
    },
    "mag": {
        "isoName": "Magahi",
        "nativeName": "Magahi"
    },
    "mai": {
        "isoName": "Maithili",
        "nativeName": "Maithili"
    },
    "mas": {
        "isoName": "Masai",
        "nativeName": "Masai"
    },
    "mer": {
        "isoName": "Meru",
        "nativeName": "Meru"
    },
    "mfe": {
        "isoName": "Morisyen",
        "nativeName": "Morisyen"
    },
    "mgh": {
        "isoName": "Makhuwa-Meetto",
        "nativeName": "Makhuwa-Meetto"
    },
    "mgo": {
        "isoName": "Meta\u02bc",
        "nativeName": "Meta\u02bc"
    },
    "mhr": {
        "isoName": "Eastern Mari",
        "nativeName": "Eastern Mari"
    },
    "miq": {
        "isoName": "M\u00edskito",
        "nativeName": "M\u00edskito"
    },
    "mjw": {
        "isoName": "Karbi",
        "nativeName": "Karbi"
    },
    "mni": {
        "isoName": "Manipuri",
        "nativeName": "Manipuri"
    },
    "mua": {
        "isoName": "Mundang",
        "nativeName": "Mundang"
    },
    "mzn": {
        "isoName": "Mazanderani",
        "nativeName": "Mazanderani"
    },
    "nan": {
        "isoName": "Min Nan Chinese",
        "nativeName": "Min Nan Chinese"
    },
    "naq": {
        "isoName": "Nama",
        "nativeName": "Nama"
    },
    "nds": {
        "isoName": "Low German",
        "nativeName": "Low German"
    },
    "nhn": {
        "isoName": "Central Nahuatl",
        "nativeName": "Central Nahuatl"
    },
    "niu": {
        "isoName": "Niuean",
        "nativeName": "Niuean"
    },
    "nmg": {
        "isoName": "Kwasio",
        "nativeName": "Kwasio"
    },
    "nnh": {
        "isoName": "Ngiemboon",
        "nativeName": "Ngiemboon"
    },
    "nso": {
        "isoName": "Northern Sotho",
        "nativeName": "Northern Sotho"
    },
    "nus": {
        "isoName": "Nuer",
        "nativeName": "Nuer"
    },
    "nyn": {
        "isoName": "Nyankole",
        "nativeName": "Nyankole"
    },
    "pap": {
        "isoName": "Papiamento",
        "nativeName": "Papiamento"
    },
    "prg": {
        "isoName": "Prussian",
        "nativeName": "Prussian"
    },
    "quz": {
        "isoName": "Cusco Quechua",
        "nativeName": "Cusco Quechua"
    },
    "raj": {
        "isoName": "Rajasthani",
        "nativeName": "Rajasthani"
    },
    "rof": {
        "isoName": "Rombo",
        "nativeName": "Rombo"
    },
    "rwk": {
        "isoName": "Rwa",
        "nativeName": "Rwa"
    },
    "sah": {
        "isoName": "Sakha",
        "nativeName": "Sakha"
    },
    "saq": {
        "isoName": "Samburu",
        "nativeName": "Samburu"
    },
    "sat": {
        "isoName": "Santali",
        "nativeName": "Santali"
    },
    "sbp": {
        "isoName": "Sangu",
        "nativeName": "Sangu"
    },
    "scr": {
        "isoName": "Serbo Croatian",
        "nativeName": "Serbo Croatian"
    },
    "seh": {
        "isoName": "Sena",
        "nativeName": "Sena"
    },
    "ses": {
        "isoName": "Koyraboro Senni",
        "nativeName": "Koyraboro Senni"
    },
    "sgs": {
        "isoName": "Samogitian",
        "nativeName": "Samogitian"
    },
    "shi": {
        "isoName": "Tachelhit",
        "nativeName": "Tachelhit"
    },
    "shn": {
        "isoName": "Shan",
        "nativeName": "Shan"
    },
    "shs": {
        "isoName": "Shuswap",
        "nativeName": "Shuswap"
    },
    "sid": {
        "isoName": "Sidamo",
        "nativeName": "Sidamo"
    },
    "smn": {
        "isoName": "Inari Sami",
        "nativeName": "Inari Sami"
    },
    "szl": {
        "isoName": "Silesian",
        "nativeName": "Silesian"
    },
    "tcy": {
        "isoName": "Tulu",
        "nativeName": "Tulu"
    },
    "teo": {
        "isoName": "Teso",
        "nativeName": "Teso"
    },
    "tet": {
        "isoName": "Tetum",
        "nativeName": "Tetum"
    },
    "the": {
        "isoName": "Chitwania Tharu",
        "nativeName": "Chitwania Tharu"
    },
    "tig": {
        "isoName": "Tigre",
        "nativeName": "Tigre"
    },
    "tlh": {
        "isoName": "Klingon",
        "nativeName": "tlhIngan Hol"
    },
    "tpi": {
        "isoName": "Tok Pisin",
        "nativeName": "Tok Pisin"
    },
    "twq": {
        "isoName": "Tasawaq",
        "nativeName": "Tasawaq"
    },
    "tzl": {
        "isoName": "Talossan",
        "nativeName": "Talossan"
    },
    "tzm": {
        "isoName": "Tamazight, Central Atlas",
        "nativeName": "\u2d5c\u2d4e\u2d30\u2d63\u2d49\u2d56\u2d5c"
    },
    "unm": {
        "isoName": "Unami",
        "nativeName": "Unami"
    },
    "vai": {
        "isoName": "Vai",
        "nativeName": "Vai"
    },
    "vun": {
        "isoName": "Vunjo",
        "nativeName": "Vunjo"
    },
    "wae": {
        "isoName": "Walser",
        "nativeName": "Walser"
    },
    "wal": {
        "isoName": "Wolaytta",
        "nativeName": "Wolaytta"
    },
    "xog": {
        "isoName": "Soga",
        "nativeName": "Soga"
    },
    "yav": {
        "isoName": "Yangben",
        "nativeName": "Yangben"
    },
    "yue": {
        "isoName": "Cantonese",
        "nativeName": "Cantonese"
    },
    "yuw": {
        "isoName": "Yau (Morobe Province)",
        "nativeName": "Yau (Morobe Province)"
    },
    "zgh": {
        "isoName": "Standard Moroccan Tamazight",
        "nativeName": "Standard Moroccan Tamazight"
    }
}